[{"OBJECT_NAME":"BISONSAT","OBJECT_ID":"2015-058L","EPOCH":"2026-03-09T11:49:35.353056","MEAN_MOTION":15.13791398,"ECCENTRICITY":0.00792382,"INCLINATION":64.7598,"RA_OF_ASC_NODE":135.3937,"ARG_OF_PERICENTER":90.6713,"MEAN_ANOMALY":270.349,"EPHEMERIS_TYPE":0,"CLASSIFICATION_TYPE":"U","NORAD_CAT_ID":40974,"ELEMENT_SET_NO":999,"REV_AT_EPOCH":10051,"BSTAR":0.0006711096,"MEAN_MOTION_DOT":0.00012971,"MEAN_MOTION_DDOT":0},{"OBJECT_NAME":"STARLINK-30438","OBJECT_ID":"2023-156H","EPOCH":"2026-03-09T06:11:59.563392","MEAN_MOTION":15.30193853,"ECCENTRICITY":0.00011599,"INCLINATION":53.1606,"RA_OF_ASC_NODE":80.1118,"ARG_OF_PERICENTER":78.5335,"MEAN_ANOMALY":281.5796,"EPHEMERIS_TYPE":0,"CLASSIFICATION_TYPE":"U","NORAD_CAT_ID":58035,"ELEMENT_SET_NO":999,"REV_AT_EPOCH":13620,"BSTAR":-1.324431e-6,"MEAN_MOTION_DOT":-3.98e-6,"MEAN_MOTION_DDOT":0}]
